[{"OBJECT_NAME":"STARLINK-6336","OBJECT_ID":"2023-078X","EPOCH":"2026-03-09T21:29:58.591392","MEAN_MOTION":14.98326686,"ECCENTRICITY":0.00027955,"INCLINATION":70,"RA_OF_ASC_NODE":323.9674,"ARG_OF_PERICENTER":270.6387,"MEAN_ANOMALY":89.4452,"EPHEMERIS_TYPE":0,"CLASSIFICATION_TYPE":"U","NORAD_CAT_ID":56788,"ELEMENT_SET_NO":999,"REV_AT_EPOCH":15320,"BSTAR":-6.2157875e-5,"MEAN_MOTION_DOT":-8.34e-6,"MEAN_MOTION_DDOT":0},{"OBJECT_NAME":"COSMOS 2251 DEB","OBJECT_ID":"1993-036BVX","EPOCH":"2026-03-07T01:08:49.279776","MEAN_MOTION":15.01172156,"ECCENTRICITY":0.00079061,"INCLINATION":73.9738,"RA_OF_ASC_NODE":312.9961,"ARG_OF_PERICENTER":93.9407,"MEAN_ANOMALY":333.6878,"EPHEMERIS_TYPE":0,"CLASSIFICATION_TYPE":"U","NORAD_CAT_ID":40794,"ELEMENT_SET_NO":999,"REV_AT_EPOCH":63186,"BSTAR":0.0025789321,"MEAN_MOTION_DOT":0.00033218,"MEAN_MOTION_DDOT":0}]
